[Satellite]
VERSION=1.1
NAME=LANDSAT 8
NICKNAME=LANDSAT 8
TLE1=1 39084U 13008A   17186.21827929  .00000032  00000-0  17085-4 0  9999
TLE2=2 39084  98.2225 256.4388 0001453  99.9171 260.2191 14.57108868233680
